STARLINK-37264          
1 68729U 26082B   26115.25002315 -.00159346  00000+0 -10847-2 0  9994
2 68729  97.2850 337.4578 0001519  93.4289 171.4100 15.75247337  2733
STARLINK-37230          
1 68730U 26082C   26115.25002315 -.00021742  00000+0 -11293-3 0  9991
2 68730  97.2849 337.4666 0001581  86.4706 195.3726 15.80837349  2739
STARLINK-37202          
1 68731U 26082D   26115.25002315 -.01968526  00000+0 -13076-1 0  9992
2 68731  97.2847 337.4661 0001949 102.5187 181.4297 15.78607000  2672
STARLINK-37167          
1 68732U 26082E   26115.25002315 -.00062503  00000+0 -32732-3 0  9994
2 68732  97.2856 337.4701 0001521 110.5798 179.8148 15.80854177  2736
STARLINK-37278          
1 68733U 26082F   26115.25002315 -.00023195  00000+0 -12056-3 0  9996
2 68733  97.2857 337.4718 0001389  84.2495 210.4197 15.80837011  2676
STARLINK-37349          
1 68734U 26082G   26115.25002315 -.00040037  00000+0 -20904-3 0  9992
2 68734  97.2856 337.4737 0001484 103.7214 195.2314 15.80835853  2672
STARLINK-37339          
1 68735U 26082H   26115.25002315 -.00004880  00000+0 -24733-4 0  9994
2 68735  97.2855 337.4754 0001547  89.9734 213.2431 15.80827890  2676
STARLINK-37327          
1 68736U 26082J   26115.25002315 -.01687255  00000+0 -12026-1 0  9998
2 68736  97.2849 337.4727 0001742 104.0486 195.9238 15.76548278  2676
STARLINK-37348          
1 68737U 26082K   26115.25002315 -.01960434  00000+0 -13470-1 0  9996
2 68737  97.2852 337.4759 0001645 100.6091 207.2801 15.77847338  2620
STARLINK-37331          
1 68738U 26082L   26115.25002315 -.00065867  00000+0 -34535-3 0  9999
2 68738  97.2854 337.4802 0001250 116.8880 199.1555 15.80840010  2628
STARLINK-37338          
1 68739U 26082M   26115.25002315 -.01968690  00000+0 -13350-1 0  9997
2 68739  97.2852 337.4803 0001708  87.1712 229.9966 15.78154302  2672
STARLINK-37314          
1 68740U 26082N   26115.25002315 -.00498455  00000+0 -27302-2 0  9998
2 68740  97.2853 337.4836 0001585 109.3035 215.2588 15.80993831  2678
STARLINK-36314          
1 68741U 26082P   26115.25002315 -.00072611  00000+0 -38113-3 0  9994
2 68741  97.2855 337.4849 0001467 117.4361 211.4318 15.80836158  2628
STARLINK-37351          
1 68742U 26082Q   26115.25002315 -.01972147  00000+0 -13228-1 0  9997
2 68742  97.2850 337.4861 0001704 104.5990 225.9292 15.78402255  2677
STARLINK-37354          
1 68743U 26082R   26115.25002315 -.00055463  00000+0 -29039-3 0  9999
2 68743  97.2855 337.4887 0001031 131.6710 205.7385 15.80836389  2676
STARLINK-37344          
1 68744U 26082S   26115.25002315 -.00071132  00000+0 -37324-3 0  9997
2 68744  97.2852 337.4904 0001863 126.6456 215.0416 15.80837643  2671
