[{"OBJECT_NAME":"STARLINK-37264","OBJECT_ID":"2026-082B","EPOCH":"2026-04-25T06:00:02.000160","MEAN_MOTION":15.75247337,"ECCENTRICITY":0.00015193,"INCLINATION":97.285,"RA_OF_ASC_NODE":337.4578,"ARG_OF_PERICENTER":93.4289,"MEAN_ANOMALY":171.41,"EPHEMERIS_TYPE":0,"CLASSIFICATION_TYPE":"U","NORAD_CAT_ID":68729,"ELEMENT_SET_NO":999,"REV_AT_EPOCH":273,"BSTAR":-0.0010847288,"MEAN_MOTION_DOT":-0.00159346,"MEAN_MOTION_DDOT":0},{"OBJECT_NAME":"STARLINK-37230","OBJECT_ID":"2026-082C","EPOCH":"2026-04-25T06:00:02.000160","MEAN_MOTION":15.80837349,"ECCENTRICITY":0.00015817,"INCLINATION":97.2849,"RA_OF_ASC_NODE":337.4666,"ARG_OF_PERICENTER":86.4706,"MEAN_ANOMALY":195.3726,"EPHEMERIS_TYPE":0,"CLASSIFICATION_TYPE":"U","NORAD_CAT_ID":68730,"ELEMENT_SET_NO":999,"REV_AT_EPOCH":273,"BSTAR":-0.0001129328,"MEAN_MOTION_DOT":-0.00021742,"MEAN_MOTION_DDOT":0},{"OBJECT_NAME":"STARLINK-37202","OBJECT_ID":"2026-082D","EPOCH":"2026-04-25T06:00:02.000160","MEAN_MOTION":15.78607,"ECCENTRICITY":0.00019498,"INCLINATION":97.2847,"RA_OF_ASC_NODE":337.4661,"ARG_OF_PERICENTER":102.5187,"MEAN_ANOMALY":181.4297,"EPHEMERIS_TYPE":0,"CLASSIFICATION_TYPE":"U","NORAD_CAT_ID":68731,"ELEMENT_SET_NO":999,"REV_AT_EPOCH":267,"BSTAR":-0.013075845,"MEAN_MOTION_DOT":-0.01968526,"MEAN_MOTION_DDOT":0},{"OBJECT_NAME":"STARLINK-37167","OBJECT_ID":"2026-082E","EPOCH":"2026-04-25T06:00:02.000160","MEAN_MOTION":15.80854177,"ECCENTRICITY":0.00015215,"INCLINATION":97.2856,"RA_OF_ASC_NODE":337.4701,"ARG_OF_PERICENTER":110.5798,"MEAN_ANOMALY":179.8148,"EPHEMERIS_TYPE":0,"CLASSIFICATION_TYPE":"U","NORAD_CAT_ID":68732,"ELEMENT_SET_NO":999,"REV_AT_EPOCH":273,"BSTAR":-0.0003273206,"MEAN_MOTION_DOT":-0.00062503,"MEAN_MOTION_DDOT":0},{"OBJECT_NAME":"STARLINK-37278","OBJECT_ID":"2026-082F","EPOCH":"2026-04-25T06:00:02.000160","MEAN_MOTION":15.80837011,"ECCENTRICITY":0.00013897,"INCLINATION":97.2857,"RA_OF_ASC_NODE":337.4718,"ARG_OF_PERICENTER":84.2495,"MEAN_ANOMALY":210.4197,"EPHEMERIS_TYPE":0,"CLASSIFICATION_TYPE":"U","NORAD_CAT_ID":68733,"ELEMENT_SET_NO":999,"REV_AT_EPOCH":267,"BSTAR":-0.00012055766,"MEAN_MOTION_DOT":-0.00023195,"MEAN_MOTION_DDOT":0},{"OBJECT_NAME":"STARLINK-37349","OBJECT_ID":"2026-082G","EPOCH":"2026-04-25T06:00:02.000160","MEAN_MOTION":15.80835853,"ECCENTRICITY":0.00014845,"INCLINATION":97.2856,"RA_OF_ASC_NODE":337.4737,"ARG_OF_PERICENTER":103.7214,"MEAN_ANOMALY":195.2314,"EPHEMERIS_TYPE":0,"CLASSIFICATION_TYPE":"U","NORAD_CAT_ID":68734,"ELEMENT_SET_NO":999,"REV_AT_EPOCH":267,"BSTAR":-0.00020904138,"MEAN_MOTION_DOT":-0.00040037,"MEAN_MOTION_DDOT":0},{"OBJECT_NAME":"STARLINK-37339","OBJECT_ID":"2026-082H","EPOCH":"2026-04-25T06:00:02.000160","MEAN_MOTION":15.8082789,"ECCENTRICITY":0.00015479,"INCLINATION":97.2855,"RA_OF_ASC_NODE":337.4754,"ARG_OF_PERICENTER":89.9734,"MEAN_ANOMALY":213.2431,"EPHEMERIS_TYPE":0,"CLASSIFICATION_TYPE":"U","NORAD_CAT_ID":68735,"ELEMENT_SET_NO":999,"REV_AT_EPOCH":267,"BSTAR":-2.4733373e-5,"MEAN_MOTION_DOT":-4.88e-5,"MEAN_MOTION_DDOT":0},{"OBJECT_NAME":"STARLINK-37327","OBJECT_ID":"2026-082J","EPOCH":"2026-04-25T06:00:02.000160","MEAN_MOTION":15.76548278,"ECCENTRICITY":0.00017425,"INCLINATION":97.2849,"RA_OF_ASC_NODE":337.4727,"ARG_OF_PERICENTER":104.0486,"MEAN_ANOMALY":195.9238,"EPHEMERIS_TYPE":0,"CLASSIFICATION_TYPE":"U","NORAD_CAT_ID":68736,"ELEMENT_SET_NO":999,"REV_AT_EPOCH":267,"BSTAR":-0.012026481,"MEAN_MOTION_DOT":-0.01687255,"MEAN_MOTION_DDOT":0},{"OBJECT_NAME":"STARLINK-37348","OBJECT_ID":"2026-082K","EPOCH":"2026-04-25T06:00:02.000160","MEAN_MOTION":15.77847338,"ECCENTRICITY":0.00016458,"INCLINATION":97.2852,"RA_OF_ASC_NODE":337.4759,"ARG_OF_PERICENTER":100.6091,"MEAN_ANOMALY":207.2801,"EPHEMERIS_TYPE":0,"CLASSIFICATION_TYPE":"U","NORAD_CAT_ID":68737,"ELEMENT_SET_NO":999,"REV_AT_EPOCH":262,"BSTAR":-0.013470386,"MEAN_MOTION_DOT":-0.01960434,"MEAN_MOTION_DDOT":0},{"OBJECT_NAME":"STARLINK-37331","OBJECT_ID":"2026-082L","EPOCH":"2026-04-25T06:00:02.000160","MEAN_MOTION":15.8084001,"ECCENTRICITY":0.000125,"INCLINATION":97.2854,"RA_OF_ASC_NODE":337.4802,"ARG_OF_PERICENTER":116.888,"MEAN_ANOMALY":199.1555,"EPHEMERIS_TYPE":0,"CLASSIFICATION_TYPE":"U","NORAD_CAT_ID":68738,"ELEMENT_SET_NO":999,"REV_AT_EPOCH":262,"BSTAR":-0.00034534651,"MEAN_MOTION_DOT":-0.00065867,"MEAN_MOTION_DDOT":0},{"OBJECT_NAME":"STARLINK-37338","OBJECT_ID":"2026-082M","EPOCH":"2026-04-25T06:00:02.000160","MEAN_MOTION":15.78154302,"ECCENTRICITY":0.00017083,"INCLINATION":97.2852,"RA_OF_ASC_NODE":337.4803,"ARG_OF_PERICENTER":87.1712,"MEAN_ANOMALY":229.9966,"EPHEMERIS_TYPE":0,"CLASSIFICATION_TYPE":"U","NORAD_CAT_ID":68739,"ELEMENT_SET_NO":999,"REV_AT_EPOCH":267,"BSTAR":-0.013349628,"MEAN_MOTION_DOT":-0.0196869,"MEAN_MOTION_DDOT":0},{"OBJECT_NAME":"STARLINK-37314","OBJECT_ID":"2026-082N","EPOCH":"2026-04-25T06:00:02.000160","MEAN_MOTION":15.80993831,"ECCENTRICITY":0.00015857,"INCLINATION":97.2853,"RA_OF_ASC_NODE":337.4836,"ARG_OF_PERICENTER":109.3035,"MEAN_ANOMALY":215.2588,"EPHEMERIS_TYPE":0,"CLASSIFICATION_TYPE":"U","NORAD_CAT_ID":68740,"ELEMENT_SET_NO":999,"REV_AT_EPOCH":267,"BSTAR":-0.0027302302,"MEAN_MOTION_DOT":-0.00498455,"MEAN_MOTION_DDOT":0},{"OBJECT_NAME":"STARLINK-36314","OBJECT_ID":"2026-082P","EPOCH":"2026-04-25T06:00:02.000160","MEAN_MOTION":15.80836158,"ECCENTRICITY":0.00014673,"INCLINATION":97.2855,"RA_OF_ASC_NODE":337.4849,"ARG_OF_PERICENTER":117.4361,"MEAN_ANOMALY":211.4318,"EPHEMERIS_TYPE":0,"CLASSIFICATION_TYPE":"U","NORAD_CAT_ID":68741,"ELEMENT_SET_NO":999,"REV_AT_EPOCH":262,"BSTAR":-0.00038113288,"MEAN_MOTION_DOT":-0.00072611,"MEAN_MOTION_DDOT":0},{"OBJECT_NAME":"STARLINK-37351","OBJECT_ID":"2026-082Q","EPOCH":"2026-04-25T06:00:02.000160","MEAN_MOTION":15.78402255,"ECCENTRICITY":0.00017047,"INCLINATION":97.285,"RA_OF_ASC_NODE":337.4861,"ARG_OF_PERICENTER":104.599,"MEAN_ANOMALY":225.9292,"EPHEMERIS_TYPE":0,"CLASSIFICATION_TYPE":"U","NORAD_CAT_ID":68742,"ELEMENT_SET_NO":999,"REV_AT_EPOCH":267,"BSTAR":-0.013227787,"MEAN_MOTION_DOT":-0.01972147,"MEAN_MOTION_DDOT":0},{"OBJECT_NAME":"STARLINK-37354","OBJECT_ID":"2026-082R","EPOCH":"2026-04-25T06:00:02.000160","MEAN_MOTION":15.80836389,"ECCENTRICITY":0.00010316,"INCLINATION":97.2855,"RA_OF_ASC_NODE":337.4887,"ARG_OF_PERICENTER":131.671,"MEAN_ANOMALY":205.7385,"EPHEMERIS_TYPE":0,"CLASSIFICATION_TYPE":"U","NORAD_CAT_ID":68743,"ELEMENT_SET_NO":999,"REV_AT_EPOCH":267,"BSTAR":-0.00029038712,"MEAN_MOTION_DOT":-0.00055463,"MEAN_MOTION_DDOT":0},{"OBJECT_NAME":"STARLINK-37344","OBJECT_ID":"2026-082S","EPOCH":"2026-04-25T06:00:02.000160","MEAN_MOTION":15.80837643,"ECCENTRICITY":0.00018639,"INCLINATION":97.2852,"RA_OF_ASC_NODE":337.4904,"ARG_OF_PERICENTER":126.6456,"MEAN_ANOMALY":215.0416,"EPHEMERIS_TYPE":0,"CLASSIFICATION_TYPE":"U","NORAD_CAT_ID":68744,"ELEMENT_SET_NO":999,"REV_AT_EPOCH":267,"BSTAR":-0.00037324125,"MEAN_MOTION_DOT":-0.00071132,"MEAN_MOTION_DDOT":0}]
